CCSDS_OMM_VERS,COMMENT,CREATION_DATE,ORIGINATOR,OBJECT_NAME,OBJECT_ID,CENTER_NAME,REF_FRAME,TIME_SYSTEM,MEAN_ELEMENT_THEORY,EPOCH,MEAN_MOTION,ECCENTRICITY,INCLINATION,RA_OF_ASC_NODE,ARG_OF_PERICENTER,MEAN_ANOMALY,EPHEMERIS_TYPE,CLASSIFICATION_TYPE,NORAD_CAT_ID,ELEMENT_SET_NO,REV_AT_EPOCH,BSTAR,MEAN_MOTION_DOT,MEAN_MOTION_DDOT,SEMIMAJOR_AXIS,PERIOD,APOAPSIS,PERIAPSIS,OBJECT_TYPE,RCS_SIZE,COUNTRY_CODE,LAUNCH_DATE,SITE,DECAY_DATE,FILE,GP_ID,TLE_LINE0,TLE_LINE1,TLE_LINE2
2,GENERATED VIA SPACE-TRACK.ORG API,2007-07-20T08:11:19,18 SPCS,JCSAT 2,1990-001B,EARTH,TEME,UTC,SGP4,2007-07-19T00:33:07.653600,0.98539753,0.0061234,5.5179,90.8565,129.594,230.8616,0,U,20402,999,4726,0.0001,-2.3e-06,0,42657.408,1461.339,36540.482,36018.065,PAYLOAD,MEDIUM,JPN,1990-01-01,AFETR,,427938,62437863,0 JCSAT 2,1 20402U 90001B   07200.02300525 -.00000230 +00000-0 +10000-3 0  9994,2 20402 005.5179 090.8565 0061234 129.5940 230.8616 00.98539753047260
2,GENERATED VIA SPACE-TRACK.ORG API,2007-07-21T09:11:17,18 SPCS,JCSAT 2,1990-001B,EARTH,TEME,UTC,SGP4,2007-07-19T00:33:08.564255,0.98539754,0.0061235,5.5179,90.8562,129.5924,230.8674,0,U,20402,999,4726,0.0001,-2.3e-06,0,42657.408,1461.339,36540.486,36018.061,PAYLOAD,MEDIUM,JPN,1990-01-01,AFETR,,428382,62452729,0 JCSAT 2,1 20402U 90001B   07200.02301579 -.00000230 +00000-0 +10000-3 0  9994,2 20402 005.5179 090.8562 0061235 129.5924 230.8674 00.98539754047265
2,GENERATED VIA SPACE-TRACK.ORG API,2007-07-21T16:58:06,18 SPCS,JCSAT 2,1990-001B,EARTH,TEME,UTC,SGP4,2007-07-21T01:15:38.302560,0.98538941,0.0060901,5.5229,90.8142,129.4665,230.9996,0,U,20402,999,4728,0.0001,-1.93e-06,0,42657.643,1461.351,36539.297,36019.719,PAYLOAD,MEDIUM,JPN,1990-01-01,AFETR,,428501,62458350,0 JCSAT 2,1 20402U 90001B   07202.05252665 -.00000193  00000-0  10000-3 0  9998,2 20402 005.5229 090.8142 0060901 129.4665 230.9996 00.98538941 47282
2,GENERATED VIA SPACE-TRACK.ORG API,2007-07-24T07:11:37,18 SPCS,JCSAT 2,1990-001B,EARTH,TEME,UTC,SGP4,2007-07-22T01:36:50.980607,0.98538484,0.0060916,5.5255,90.7942,129.5017,230.9563,0,U,20402,999,4729,0.0001,-1.68e-06,0,42657.775,1461.357,36539.494,36019.786,PAYLOAD,MEDIUM,JPN,1990-01-01,AFETR,,429454,62490185,0 JCSAT 2,1 20402U 90001B   07203.06725672 -.00000168 +00000-0 +10000-3 0  9995,2 20402 005.5255 090.7942 0060916 129.5017 230.9563 00.98538484047299
2,GENERATED VIA SPACE-TRACK.ORG API,2007-07-24T16:57:23,18 SPCS,JCSAT 2,1990-001B,EARTH,TEME,UTC,SGP4,2007-07-24T02:19:16.773024,0.98537463,0.0060922,5.5306,90.7538,129.5732,230.8649,0,U,20402,999,4731,0.0001,-1.08e-06,0,42658.069,1461.373,36539.816,36020.053,PAYLOAD,MEDIUM,JPN,1990-01-01,AFETR,,429722,62496929,0 JCSAT 2,1 20402U 90001B   07205.09672191 -.00000108  00000-0  10000-3 0  9991,2 20402 005.5306 090.7538 0060922 129.5732 230.8649 00.98537463 47311
2,GENERATED VIA SPACE-TRACK.ORG API,2007-07-26T07:11:26,18 SPCS,JCSAT 2,1990-001B,EARTH,TEME,UTC,SGP4,2007-07-25T02:40:30.939743,0.98536959,0.0060927,5.5332,90.7331,129.6099,230.8212,0,U,20402,999,4732,0.0001,-7.7e-07,0,42658.215,1461.38,36539.984,36020.176,PAYLOAD,MEDIUM,JPN,1990-01-01,AFETR,,430261,62515762,0 JCSAT 2,1 20402U 90001B   07206.11146921 -.00000077 +00000-0 +10000-3 0  9997,2 20402 005.5332 090.7331 0060927 129.6099 230.8212 00.98536959047329
2,GENERATED VIA SPACE-TRACK.ORG API,2007-07-27T09:58:02,18 SPCS,JCSAT 2,1990-001B,EARTH,TEME,UTC,SGP4,2007-07-26T03:01:46.828416,0.98536555,0.0060628,5.5355,90.7135,129.9418,230.4942,0,U,20402,999,4733,0.0001,-4.7e-07,0,42658.331,1461.386,36538.825,36021.567,PAYLOAD,MEDIUM,JPN,1990-01-01,AFETR,,430834,62527260,0 JCSAT 2,1 20402U 90001B   07207.12623644 -.00000047  00000-0  10000-3 0  9998,2 20402 005.5355 090.7135 0060628 129.9418 230.4942 00.98536555 47331
2,GENERATED VIA SPACE-TRACK.ORG API,2007-07-27T01:28:38,18 SPCS,JCSAT 2,1990-001B,EARTH,TEME,UTC,SGP4,2007-07-26T03:01:47.108351,0.98536493,0.0060879,5.5357,90.7135,129.6889,230.741,0,U,20402,999,4733,0.0001,-4.7e-07,0,42658.349,1461.387,36539.914,36020.515,PAYLOAD,MEDIUM,JPN,1990-01-01,AFETR,,430673,62524944,0 JCSAT 2,1 20402U 90001B   07207.12623968 -.00000047  00000-0  10000-3 0  9997,2 20402 005.5357 090.7135 0060879 129.6889 230.7410 00.98536493 47334
2,GENERATED VIA SPACE-TRACK.ORG API,2007-07-27T10:11:36,18 SPCS,JCSAT 2,1990-001B,EARTH,TEME,UTC,SGP4,2007-07-26T03:01:47.108351,0.98536493,0.0060879,5.5357,90.7135,129.6889,230.741,0,U,20402,999,4733,0.0001,-4.7e-07,0,42658.349,1461.387,36539.914,36020.515,PAYLOAD,MEDIUM,JPN,1990-01-01,AFETR,,430870,62531724,0 JCSAT 2,1 20402U 90001B   07207.12623968 -.00000047 +00000-0 +10000-3 0  9997,2 20402 005.5357 090.7135 0060879 129.6889 230.7410 00.98536493047334
2,GENERATED VIA SPACE-TRACK.ORG API,2007-07-28T01:03:00,18 SPCS,JCSAT 2,1990-001B,EARTH,TEME,UTC,SGP4,2007-07-27T03:23:02.803488,0.9853628,0.006109,5.5382,90.6954,129.9246,230.5115,0,U,20402,999,4734,0.0001,-2e-07,0,42658.411,1461.39,36540.876,36019.676,PAYLOAD,MEDIUM,JPN,1990-01-01,AFETR,,431093,62539099,0 JCSAT 2,1 20402U 90001B   07208.14100467 -.00000020  00000-0  10000-3 0  9995,2 20402 005.5382 090.6954 0061090 129.9246 230.5115 00.98536280 47341
2,GENERATED VIA SPACE-TRACK.ORG API,2007-07-29T08:11:16,18 SPCS,JCSAT 2,1990-001B,EARTH,TEME,UTC,SGP4,2007-07-28T03:44:24.165599,0.9853599,0.0061145,5.5408,90.6753,129.9308,230.524,0,U,20402,999,4735,0.0001,4e-08,0,42658.495,1461.394,36541.195,36019.524,PAYLOAD,MEDIUM,JPN,1990-01-01,AFETR,,431497,62556781,0 JCSAT 2,1 20402U 90001B   07209.15583525 +.00000004 +00000-0 +10000-3 0  9998,2 20402 005.5408 090.6753 0061145 129.9308 230.5240 00.98535990047354
2,GENERATED VIA SPACE-TRACK.ORG API,2007-07-29T17:05:30,18 SPCS,JCSAT 2,1990-001B,EARTH,TEME,UTC,SGP4,2007-07-29T04:05:47.518367,0.9853581,0.0061241,5.5435,90.6557,129.9462,230.5341,0,U,20402,999,4736,0.0001,2.2e-07,0,42658.546,1461.397,36541.657,36019.166,PAYLOAD,MEDIUM,JPN,1990-01-01,AFETR,,431732,62563863,0 JCSAT 2,1 20402U 90001B   07210.17068887  .00000022  00000-0  10000-3 0  9991,2 20402 005.5435 090.6557 0061241 129.9462 230.5341 00.98535810 47368
2,GENERATED VIA SPACE-TRACK.ORG API,2007-07-31T10:11:38,18 SPCS,JCSAT 2,1990-001B,EARTH,TEME,UTC,SGP4,2007-07-29T04:05:47.697215,0.98535812,0.0061214,5.5434,90.6556,129.9642,230.5173,0,U,20402,999,4736,0.0001,2.2e-07,0,42658.546,1461.397,36541.541,36019.281,PAYLOAD,MEDIUM,JPN,1990-01-01,AFETR,,432313,62583607,0 JCSAT 2,1 20402U 90001B   07210.17069094 +.00000022 +00000-0 +10000-3 0  9992,2 20402 005.5434 090.6556 0061214 129.9642 230.5173 00.98535812047361
2,GENERATED VIA SPACE-TRACK.ORG API,2007-08-01T12:11:24,18 SPCS,JCSAT 2,1990-001B,EARTH,TEME,UTC,SGP4,2007-07-30T04:27:12.288096,0.98535745,0.0061199,5.5459,90.6357,130.0167,230.4959,0,U,20402,999,4737,0.0001,3.5e-07,0,42658.565,1461.398,36541.496,36019.364,PAYLOAD,MEDIUM,JPN,1990-01-01,AFETR,,432884,62598487,0 JCSAT 2,1 20402U 90001B   07211.18555889 +.00000035 +00000-0 +10000-3 0  9990,2 20402 005.5459 090.6357 0061199 130.0167 230.4959 00.98535745047371
2,GENERATED VIA SPACE-TRACK.ORG API,2007-08-01T11:38:57,18 SPCS,JCSAT 2,1990-001B,EARTH,TEME,UTC,SGP4,2007-07-31T04:48:36.920447,0.9853578,0.0061183,5.5484,90.6162,130.0612,230.4811,0,U,20402,999,4738,0.0001,4.2e-07,0,42658.555,1461.398,36541.418,36019.422,PAYLOAD,MEDIUM,JPN,1990-01-01,AFETR,,432763,62592423,0 JCSAT 2,1 20402U 90001B   07212.20042732  .00000042  00000-0  10000-3 0  9990,2 20402 005.5484 090.6162 0061183 130.0612 230.4811 00.98535780 47388
2,GENERATED VIA SPACE-TRACK.ORG API,2007-08-02T09:11:31,18 SPCS,JCSAT 2,1990-001B,EARTH,TEME,UTC,SGP4,2007-08-01T05:10:00.711263,0.9853594,0.0061169,5.551,90.5968,130.0491,230.5201,0,U,20402,999,4739,0.0001,4.2e-07,0,42658.509,1461.395,36541.312,36019.436,PAYLOAD,MEDIUM,JPN,1990-01-01,AFETR,,433254,62612231,0 JCSAT 2,1 20402U 90001B   07213.21528601 +.00000042 +00000-0 +10000-3 0  9996,2 20402 005.5510 090.5968 0061169 130.0491 230.5201 00.98535940047393
2,GENERATED VIA SPACE-TRACK.ORG API,2007-08-03T11:11:33,18 SPCS,JCSAT 2,1990-001B,EARTH,TEME,UTC,SGP4,2007-08-01T05:10:00.737184,0.9853594,0.0061169,5.551,90.5968,130.0491,230.5202,0,U,20402,999,4739,0.0001,4.2e-07,0,42658.509,1461.395,36541.312,36019.436,PAYLOAD,MEDIUM,JPN,1990-01-01,AFETR,,433710,62626542,0 JCSAT 2,1 20402U 90001B   07213.21528631 +.00000042 +00000-0 +10000-3 0  9999,2 20402 005.5510 090.5968 0061169 130.0491 230.5202 00.98535940047394
2,GENERATED VIA SPACE-TRACK.ORG API,2007-08-03T01:11:28,18 SPCS,JCSAT 2,1990-001B,EARTH,TEME,UTC,SGP4,2007-08-02T05:31:22.010304,0.98536212,0.0061172,5.5535,90.5771,129.9633,230.6233,0,U,20402,999,4740,0.0001,3.5e-07,0,42658.43,1461.391,36541.246,36019.345,PAYLOAD,MEDIUM,JPN,1990-01-01,AFETR,,433512,62619644,0 JCSAT 2,1 20402U 90001B   07214.23011586  .00000035  00000-0  10000-3 0  9990,2 20402 005.5535 090.5771 0061172 129.9633 230.6233 00.98536212 47402
2,GENERATED VIA SPACE-TRACK.ORG API,2007-08-04T09:11:16,18 SPCS,JCSAT 2,1990-001B,EARTH,TEME,UTC,SGP4,2007-08-03T05:52:40.150560,0.98536567,0.0061183,5.556,90.5567,130.0811,230.5118,0,U,20402,999,4741,0.0001,2.1e-07,0,42658.328,1461.386,36541.189,36019.197,PAYLOAD,MEDIUM,JPN,1990-01-01,AFETR,,433987,62639032,0 JCSAT 2,1 20402U 90001B   07215.24490915 +.00000021 +00000-0 +10000-3 0  9994,2 20402 005.5560 090.5567 0061183 130.0811 230.5118 00.98536567047411
2,GENERATED VIA SPACE-TRACK.ORG API,2007-08-06T14:11:42,18 SPCS,JCSAT 2,1990-001B,EARTH,TEME,UTC,SGP4,2007-08-04T06:13:54.782111,0.98536951,0.0061214,5.5586,90.5362,130.1347,230.4492,0,U,20402,999,4742,0.0001,1e-08,0,42658.217,1461.38,36541.21,36018.954,PAYLOAD,MEDIUM,JPN,1990-01-01,AFETR,,434956,62666741,0 JCSAT 2,1 20402U 90001B   07216.25966183 +.00000001 +00000-0 +10000-3 0  9999,2 20402 005.5586 090.5362 0061214 130.1347 230.4492 00.98536951047424
